NORAD_CAT_ID,OBJECT_NAME,OBJECT_TYPE,EPOCH,MEAN_MOTION,ECCENTRICITY,INCLINATION,RA_OF_ASC_NODE,ARG_OF_PERICENTER,MEAN_ANOMALY,BSTAR,MEAN_MOTION_DOT,MEAN_MOTION_DDOT,TLE_LINE0,TLE_LINE1,TLE_LINE2,SEMIMAJOR_AXIS,PERIOD,APOGEE,PERIGEE,DECAYED
50851.0,STARLINK-3314,PAYLOAD,2022-09-21 00:07:05,15.08826723,0.0001714,53.2171,101.0088,56.965,303.1506,-5.0256e-05,-1.087e-05,0.0,0 STARLINK-3314,1 50851U 22001BA  22264.00492476 -.00001087  00000-0 -50256-4 0  9992,2 50851  53.2171 101.0088 0001714  56.9650 303.1506 15.08826723 40477,6917.920999999999,95.438,540.972,538.6,0.0
50851.0,STARLINK-3314,PAYLOAD,2022-09-21 16:00:57,15.08793619,0.0001923,53.2166,98.0337,65.9727,294.1466,0.00050258,7.709999999999999e-05,0.0,0 STARLINK-3314,1 50851U 22001BA  22264.66733101  .00007710  00000-0  50258-3 0  9995,2 50851  53.2166  98.0337 0001923  65.9727 294.1466 15.08793619 40572,6918.022,95.44,541.217,538.557,0.0
50851.0,STARLINK-3314,PAYLOAD,2022-09-22 01:33:15,15.08833622,0.0001774999999999,53.2169,96.2503,68.8392,291.279,6.9285e-05,8.15e-06,0.0,0 STARLINK-3314,1 50851U 22001BA  22265.06476353  .00000815  00000-0  69285-4 0  9993,2 50851  53.2169  96.2503 0001775  68.8392 291.2790 15.08833622 40639,6917.9,95.438,540.993,538.5369999999998,0.0
50851.0,STARLINK-3314,PAYLOAD,2022-09-22 19:02:30,15.0883672,0.000179,53.2171,92.9801,59.1927,300.9241,0.0001613,2.28e-05,0.0,0 STARLINK-3314,1 50851U 22001BA  22265.79340362  .00002280  00000-0  16130-3 0  9991,2 50851  53.2171  92.9801 0001790  59.1927 300.9241 15.08836720 39460,6917.89,95.438,540.994,538.5169999999998,0.0
50851.0,STARLINK-3314,PAYLOAD,2022-09-23 18:53:16,15.08850108,0.0001810999999999,53.2173,88.52,55.1772,304.9391,0.00013666,1.888e-05,0.0,0 STARLINK-3314,1 50851U 22001BA  22266.78699533  .00001888  00000-0  13666-3 0  9992,2 50851  53.2173  88.5200 0001811  55.1772 304.9391 15.08850108 40899,6917.849,95.437,540.967,538.462,0.0
50851.0,STARLINK-3314,PAYLOAD,2022-09-23 20:28:39,15.08848778,0.0001825,53.2172,88.2228,54.6348,305.4815,0.00012325,1.674e-05,0.0,0 STARLINK-3314,1 50851U 22001BA  22266.85323636  .00001674  00000-0  12325-3 0  9992,2 50851  53.2172  88.2228 0001825  54.6348 305.4815 15.08848778 39629,6917.854,95.437,540.981,538.456,0.0
50851.0,STARLINK-3314,PAYLOAD,2022-09-23 22:04:03,15.08843032,0.0001902,53.2173,87.9248,55.9612,304.1561,8.7952e-05,1.112e-05,0.0,0 STARLINK-3314,1 50851U 22001BA  22266.91948112  .00001112  00000-0  87952-4 0  9997,2 50851  53.2173  87.9248 0001902  55.9612 304.1561 15.08843032 40918,6917.871,95.437,541.052,538.42,0.0
50851.0,STARLINK-3314,PAYLOAD,2022-09-24 18:44:04,15.08832459,0.0001855999999999,53.2176,84.0593,57.4011,302.716,-7.3802e-05,-1.462e-05,0.0,0 STARLINK-3314,1 50851U 22001BA  22267.78061339 -.00001462  00000-0 -73802-4 0  9999,2 50851  53.2176  84.0593 0001856  57.4011 302.7160 15.08832459 41045,6917.903,95.438,541.052,538.484,0.0
50851.0,STARLINK-3314,PAYLOAD,2022-09-24 21:54:51,15.08836045,0.0001825,53.2177,83.4649,59.0346,301.0825,-4.2273e-05,-9.61e-06,0.0,0 STARLINK-3314,1 50851U 22001BA  22267.91309039 -.00000961  00000-0 -42273-4 0  9997,2 50851  53.2177  83.4649 0001825  59.0346 301.0825 15.08836045 39789,6917.892,95.438,541.02,538.495,0.0
50851.0,STARLINK-3314,PAYLOAD,2022-09-25 16:59:27,15.08848716,0.0001585999999999,53.2181,79.8954,72.8756,287.2409,-4.2207e-05,-9.6e-06,0.0,0 STARLINK-3314,1 50851U 22001BA  22268.70796095 -.00000960  00000-0 -42207-4 0  9993,2 50851  53.2181  79.8954 0001586  72.8756 287.2409 15.08848716 41182,6917.854,95.437,540.816,538.622,0.0
50851.0,STARLINK-3314,PAYLOAD,2022-09-25 20:10:14,15.08850088,0.0001693,53.218,79.3004,59.9961,300.1199,-3.8788e-05,-9.06e-06,0.0,0 STARLINK-3314,1 50851U 22001BA  22268.84044002 -.00000906  00000-0 -38788-4 0  9991,2 50851  53.2180  79.3004 0001693  59.9961 300.1199 15.08850088 39920,6917.85,95.437,540.886,538.543,0.0
50851.0,STARLINK-3314,PAYLOAD,2022-09-26 18:25:38,15.088384,0.0001744,53.2176,75.1367,52.9036,307.2115,0.00010872,1.443e-05,0.0,0 STARLINK-3314,1 50851U 22001BA  22269.76780495  .00001443  00000-0  10872-3 0  9994,2 50851  53.2176  75.1367 0001744  52.9036 307.2115 15.08838400 41343,6917.885,95.438,540.957,538.544,0.0
50851.0,STARLINK-3314,PAYLOAD,2022-09-28 10:10:15,15.08850904,0.0001809,53.2181,67.7037,60.01300000000001,300.1041,9.1521e-05,1.169e-05,0.0,0 STARLINK-3314,1 50851U 22001BA  22271.42379230  .00001169  00000-0  91521-4 0  9997,2 50851  53.2181  67.7037 0001809  60.0130 300.1041 15.08850904 41597,6917.847,95.437,540.9630000000002,538.461,0.0
50851.0,STARLINK-3314,PAYLOAD,2022-09-28 16:31:47,15.08853413,0.0001811999999999,53.2184,66.5142,60.9123,299.2051,0.00010991,1.462e-05,0.0,0 STARLINK-3314,1 50851U 22001BA  22271.68874879  .00001462  00000-0  10991-3 0  9991,2 50851  53.2184  66.5142 0001812  60.9123 299.2051 15.08853413 40359,6917.839,95.437,540.9580000000002,538.451,0.0
50851.0,STARLINK-3314,PAYLOAD,2022-09-29 17:57:59,15.08842745,0.0002032999999999,53.2179,61.7578,53.2121,306.9058,-2.9768e-06,-3.36e-06,0.0,0 STARLINK-3314,1 50851U 22001BA  22272.74859993 -.00000336  00000-0 -29768-5 0  9994,2 50851  53.2179  61.7578 0002033  53.2121 306.9058 15.08842745 41790,6917.871999999999,95.437,541.143,538.331,0.0
50851.0,STARLINK-3314,PAYLOAD,2022-09-30 09:51:49,15.08876616,0.0001705,53.2187,58.7848,43.71100000000001,316.4016,-0.00038704,-6.449e-05,0.0,0 STARLINK-3314,1 50851U 22001BA  22273.41099022 -.00006449  00000-0 -38704-3 0  9997,2 50851  53.2187  58.7848 0001705  43.7110 316.4016 15.08876616 40616,6917.768,95.435,540.813,538.4540000000002,0.0
50851.0,STARLINK-3314,PAYLOAD,2022-09-30 16:13:25,15.08740306,0.0002288,53.2176,57.5941,52.4867,307.6333,0.0019062999999999,0.00030099,0.0,0 STARLINK-3314,1 50851U 22001BA  22273.67598837  .00030099  00000-0  19063-2 0  9995,2 50851  53.2176  57.5941 0002288  52.4867 307.6333 15.08740306 41934,6918.185,95.444,541.633,538.467,0.0
50851.0,STARLINK-3314,PAYLOAD,2022-09-30 20:59:30,15.08858807,0.0001726,53.2175,56.7023,50.5926,309.5218,0.00017989,2.577e-05,0.0,0 STARLINK-3314,1 50851U 22001BA  22273.87466204  .00002577  00000-0  17989-3 0  9995,2 50851  53.2175  56.7023 0001726  50.5926 309.5218 15.08858807 41968,6917.823,95.436,540.882,538.494,0.0
50851.0,STARLINK-3314,PAYLOAD,2022-10-01 12:53:24,15.08801374,0.0001995,53.2187,53.7246,59.887,300.232,0.0013637,0.00021459,0.0,0 STARLINK-3314,1 50851U 22001BA  22274.53708975  .00021459  00000-0  13637-2 0  9998,2 50851  53.2187  53.7246 0001995  59.8870 300.2320 15.08801374 40781,6917.998000000001,95.44,541.244,538.4830000000002,0.0
50851.0,STARLINK-3314,PAYLOAD,2022-10-01 16:04:09,15.08839088,0.0001745,53.2187,53.1336,51.7979,308.317,0.00010575,1.395e-05,0.0,0 STARLINK-3314,1 50851U 22001BA  22274.66955478  .00001395  00000-0  10575-3 0  9990,2 50851  53.2187  53.1336 0001745  51.7979 308.3170 15.08839088 42089,6917.8830000000025,95.438,540.955,538.5409999999998,0.0
50851.0,STARLINK-3314,PAYLOAD,2022-10-01 19:14:55,15.08843028,0.0001745,53.2189,52.539,51.4665,308.6483,0.00013354,1.838e-05,0.0,0 STARLINK-3314,1 50851U 22001BA  22274.80203187  .00001838  00000-0  13354-3 0  9999,2 50851  53.2189  52.5390 0001745  51.4665 308.6483 15.08843028 40822,6917.871,95.437,540.943,538.529,0.0
50851.0,STARLINK-3314,PAYLOAD,2022-10-02 12:44:11,15.08832524,0.0001633,53.2205,49.2691,56.4618,303.653,-3.3607e-05,-8.23e-06,0.0,0 STARLINK-3314,1 50851U 22001BA  22275.53068343 -.00000823  00000-0 -33607-4 0  9992,2 50851  53.2205  49.2691 0001633  56.4618 303.6530 15.08832524 40936,6917.903,95.438,540.898,538.639,0.0
50851.0,STARLINK-3314,PAYLOAD,2022-10-02 19:05:43,15.08837132,0.0001602,53.2178,48.077,55.2061,304.9082,-7.5332e-05,-1.487e-05,0.0,0 STARLINK-3314,1 50851U 22001BA  22275.79564078 -.00001487  00000-0 -75332-4 0  9994,2 50851  53.2178  48.0770 0001602  55.2061 304.9082 15.08837132 40975,6917.889,95.438,540.862,538.646,0.0
50851.0,STARLINK-3314,PAYLOAD,2022-10-03 01:27:15,15.08843004,0.0001742,53.2196,46.8891,52.4441,307.6709,-4.0457e-05,-9.32e-06,0.0,0 STARLINK-3314,1 50851U 22001BA  22276.06059677 -.00000932  00000-0 -40457-4 0  9993,2 50851  53.2196  46.8891 0001742  52.4441 307.6709 15.08843004 42299,6917.871,95.437,540.941,538.531,0.0
50851.0,STARLINK-3314,PAYLOAD,2022-10-03 12:34:56,15.08849043,0.0002065,53.2189,44.8028,40.486,319.6285,0.00013389,1.844e-05,0.0,0 STARLINK-3314,1 50851U 22001BA  22276.52426789  .00001844  00000-0  13389-3 0  9990,2 50851  53.2189  44.8028 0002065  40.4860 319.6285 15.08849043 41089,6917.853,95.437,541.146,538.289,0.0
50851.0,STARLINK-3314,PAYLOAD,2022-10-03 18:56:28,15.08852879,0.0001672,53.2192,43.6176,56.8374,303.2779,0.00020547,2.985e-05,0.0,0 STARLINK-3314,1 50851U 22001BA  22276.78922352  .00002985  00000-0  20547-3 0  9996,2 50851  53.2192  43.6176 0001672  56.8374 303.2779 15.08852879 42403,6917.840999999999,95.437,540.863,538.549,0.0
50851.0,STARLINK-3314,PAYLOAD,2022-10-04 12:25:44,15.08838344,0.0001814,53.2186,40.3468,53.4481,306.6678,0.00011704,1.575e-05,0.0,0 STARLINK-3314,1 50851U 22001BA  22277.51787398  .00001575  00000-0  11704-3 0  9996,2 50851  53.2186  40.3468 0001814  53.4481 306.6678 15.08838344 41230,6917.885,95.438,541.005,538.496,0.0
50851.0,STARLINK-3314,PAYLOAD,2022-10-04 14:01:07,15.08838946,0.0001817,53.2187,40.0495,53.5257,306.5903,0.00011817,1.593e-05,0.0,0 STARLINK-3314,1 50851U 22001BA  22277.58411376  .00001593  00000-0  11817-3 0  9998,2 50851  53.2187  40.0495 0001817  53.5257 306.5903 15.08838946 42524,6917.884,95.438,541.006,538.492,0.0
50851.0,STARLINK-3314,PAYLOAD,2022-10-04 20:22:39,15.08840411,0.0001863,53.218,38.8593,51.0723,309.0435,0.00010386,1.365e-05,0.0,0 STARLINK-3314,1 50851U 22001BA  22277.84907290  .00001365  00000-0  10386-3 0  9999,2 50851  53.2180  38.8593 0001863  51.0723 309.0435 15.08840411 41283,6917.879,95.438,541.033,538.455,0.0
